[{"OBJECT_NAME":"ONEWEB-0223","OBJECT_ID":"2021-045B","EPOCH":"2026-01-13T04:31:20.687232","MEAN_MOTION":13.15548094,"ECCENTRICITY":0.00013454,"INCLINATION":87.901,"RA_OF_ASC_NODE":290.1203,"ARG_OF_PERICENTER":61.7374,"MEAN_ANOMALY":298.3892,"EPHEMERIS_TYPE":0,"CLASSIFICATION_TYPE":"U","NORAD_CAT_ID":48768,"ELEMENT_SET_NO":999,"REV_AT_EPOCH":22402,"BSTAR":-1.8606135e-5,"MEAN_MOTION_DOT":6.0e-8,"MEAN_MOTION_DDOT":0},{"OBJECT_NAME":"ONEWEB-0230","OBJECT_ID":"2021-045C","EPOCH":"2026-01-13T03:50:16.211904","MEAN_MOTION":13.15549097,"ECCENTRICITY":0.0001778,"INCLINATION":87.9006,"RA_OF_ASC_NODE":290.1534,"ARG_OF_PERICENTER":74.0134,"MEAN_ANOMALY":286.1192,"EPHEMERIS_TYPE":0,"CLASSIFICATION_TYPE":"U","NORAD_CAT_ID":48769,"ELEMENT_SET_NO":999,"REV_AT_EPOCH":22428,"BSTAR":0.00013833976,"MEAN_MOTION_DOT":6.5e-7,"MEAN_MOTION_DDOT":0},{"OBJECT_NAME":"ONEWEB-0237","OBJECT_ID":"2021-045D","EPOCH":"2026-01-13T03:34:17.959872","MEAN_MOTION":13.1554928,"ECCENTRICITY":0.00015574,"INCLINATION":87.9008,"RA_OF_ASC_NODE":290.1564,"ARG_OF_PERICENTER":63.8507,"MEAN_ANOMALY":296.2784,"EPHEMERIS_TYPE":0,"CLASSIFICATION_TYPE":"U","NORAD_CAT_ID":48770,"ELEMENT_SET_NO":999,"REV_AT_EPOCH":22400,"BSTAR":0.00031506379,"MEAN_MOTION_DOT":1.31e-6,"MEAN_MOTION_DDOT":0},{"OBJECT_NAME":"ONEWEB-0235","OBJECT_ID":"2021-045E","EPOCH":"2026-01-13T04:47:19.011840","MEAN_MOTION":13.15548861,"ECCENTRICITY":0.00013986,"INCLINATION":87.901,"RA_OF_ASC_NODE":290.1189,"ARG_OF_PERICENTER":58.393,"MEAN_ANOMALY":301.7336,"EPHEMERIS_TYPE":0,"CLASSIFICATION_TYPE":"U","NORAD_CAT_ID":48771,"ELEMENT_SET_NO":999,"REV_AT_EPOCH":22400,"BSTAR":0.00027950569,"MEAN_MOTION_DOT":1.18e-6,"MEAN_MOTION_DDOT":0},{"OBJECT_NAME":"ONEWEB-0242","OBJECT_ID":"2021-045F","EPOCH":"2026-01-13T04:38:11.434560","MEAN_MOTION":13.15549139,"ECCENTRICITY":0.00016667,"INCLINATION":87.9017,"RA_OF_ASC_NODE":290.1147,"ARG_OF_PERICENTER":67.7989,"MEAN_ANOMALY":292.3318,"EPHEMERIS_TYPE":0,"CLASSIFICATION_TYPE":"U","NORAD_CAT_ID":48772,"ELEMENT_SET_NO":999,"REV_AT_EPOCH":22404,"BSTAR":0.00019371236,"MEAN_MOTION_DOT":8.6e-7,"MEAN_MOTION_DDOT":0},{"OBJECT_NAME":"ONEWEB-0241","OBJECT_ID":"2021-045G","EPOCH":"2026-01-13T04:19:56.326656","MEAN_MOTION":13.15550585,"ECCENTRICITY":0.00012068,"INCLINATION":87.9009,"RA_OF_ASC_NODE":290.152,"ARG_OF_PERICENTER":68.0877,"MEAN_ANOMALY":292.0381,"EPHEMERIS_TYPE":0,"CLASSIFICATION_TYPE":"U","NORAD_CAT_ID":48773,"ELEMENT_SET_NO":999,"REV_AT_EPOCH":22395,"BSTAR":-0.00020857154,"MEAN_MOTION_DOT":-6.6e-7,"MEAN_MOTION_DDOT":0},{"OBJECT_NAME":"ONEWEB-0243","OBJECT_ID":"2021-045H","EPOCH":"2026-01-13T05:05:33.564192","MEAN_MOTION":13.15552803,"ECCENTRICITY":0.0001611,"INCLINATION":87.9008,"RA_OF_ASC_NODE":290.1558,"ARG_OF_PERICENTER":59.3358,"MEAN_ANOMALY":300.7931,"EPHEMERIS_TYPE":0,"CLASSIFICATION_TYPE":"U","NORAD_CAT_ID":48774,"ELEMENT_SET_NO":999,"REV_AT_EPOCH":22398,"BSTAR":0.00051586215,"MEAN_MOTION_DOT":2.07e-6,"MEAN_MOTION_DDOT":0},{"OBJECT_NAME":"ONEWEB-0222","OBJECT_ID":"2021-045J","EPOCH":"2026-01-13T04:41:35.051712","MEAN_MOTION":13.15550984,"ECCENTRICITY":0.0001481,"INCLINATION":87.9013,"RA_OF_ASC_NODE":290.1146,"ARG_OF_PERICENTER":69.5837,"MEAN_ANOMALY":290.5453,"EPHEMERIS_TYPE":0,"CLASSIFICATION_TYPE":"U","NORAD_CAT_ID":48775,"ELEMENT_SET_NO":999,"REV_AT_EPOCH":22402,"BSTAR":0.00025168326,"MEAN_MOTION_DOT":1.08e-6,"MEAN_MOTION_DDOT":0},{"OBJECT_NAME":"ONEWEB-0244","OBJECT_ID":"2021-045K","EPOCH":"2026-01-13T03:29:44.163456","MEAN_MOTION":13.15548746,"ECCENTRICITY":0.00015868,"INCLINATION":87.9019,"RA_OF_ASC_NODE":290.1133,"ARG_OF_PERICENTER":68.0468,"MEAN_ANOMALY":292.0831,"EPHEMERIS_TYPE":0,"CLASSIFICATION_TYPE":"U","NORAD_CAT_ID":48776,"ELEMENT_SET_NO":999,"REV_AT_EPOCH":22458,"BSTAR":0.0006055552,"MEAN_MOTION_DOT":2.41e-6,"MEAN_MOTION_DDOT":0},{"OBJECT_NAME":"ONEWEB-0247","OBJECT_ID":"2021-045L","EPOCH":"2026-01-13T05:14:40.623072","MEAN_MOTION":13.1554735,"ECCENTRICITY":0.00016622,"INCLINATION":87.9002,"RA_OF_ASC_NODE":290.1502,"ARG_OF_PERICENTER":42.7215,"MEAN_ANOMALY":317.4044,"EPHEMERIS_TYPE":0,"CLASSIFICATION_TYPE":"U","NORAD_CAT_ID":48777,"ELEMENT_SET_NO":999,"REV_AT_EPOCH":22403,"BSTAR":0.00057756122,"MEAN_MOTION_DOT":2.3e-6,"MEAN_MOTION_DDOT":0},{"OBJECT_NAME":"ONEWEB-0245","OBJECT_ID":"2021-045M","EPOCH":"2026-01-13T03:18:20.237472","MEAN_MOTION":13.15548714,"ECCENTRICITY":0.0001361,"INCLINATION":87.901,"RA_OF_ASC_NODE":290.1322,"ARG_OF_PERICENTER":74.2601,"MEAN_ANOMALY":285.868,"EPHEMERIS_TYPE":0,"CLASSIFICATION_TYPE":"U","NORAD_CAT_ID":48778,"ELEMENT_SET_NO":999,"REV_AT_EPOCH":22399,"BSTAR":0.00023511504,"MEAN_MOTION_DOT":1.01e-6,"MEAN_MOTION_DDOT":0},{"OBJECT_NAME":"ONEWEB-0229","OBJECT_ID":"2021-045N","EPOCH":"2026-01-13T05:01:00.532416","MEAN_MOTION":13.15549315,"ECCENTRICITY":0.00016703,"INCLINATION":87.9011,"RA_OF_ASC_NODE":290.1159,"ARG_OF_PERICENTER":68.8935,"MEAN_ANOMALY":291.2373,"EPHEMERIS_TYPE":0,"CLASSIFICATION_TYPE":"U","NORAD_CAT_ID":48779,"ELEMENT_SET_NO":999,"REV_AT_EPOCH":22403,"BSTAR":0.00061157554,"MEAN_MOTION_DOT":2.43e-6,"MEAN_MOTION_DDOT":0},{"OBJECT_NAME":"ONEWEB-0228","OBJECT_ID":"2021-045P","EPOCH":"2026-01-13T03:59:34.954656","MEAN_MOTION":13.15550464,"ECCENTRICITY":0.00015887,"INCLINATION":87.9014,"RA_OF_ASC_NODE":290.111,"ARG_OF_PERICENTER":70.9582,"MEAN_ANOMALY":289.172,"EPHEMERIS_TYPE":0,"CLASSIFICATION_TYPE":"U","NORAD_CAT_ID":48780,"ELEMENT_SET_NO":999,"REV_AT_EPOCH":22394,"BSTAR":-0.00014960032,"MEAN_MOTION_DOT":-4.4e-7,"MEAN_MOTION_DDOT":0},{"OBJECT_NAME":"ONEWEB-0232","OBJECT_ID":"2021-045Q","EPOCH":"2026-01-13T03:22:52.748256","MEAN_MOTION":13.15550585,"ECCENTRICITY":0.00015813,"INCLINATION":87.9024,"RA_OF_ASC_NODE":290.111,"ARG_OF_PERICENTER":72.2925,"MEAN_ANOMALY":287.8378,"EPHEMERIS_TYPE":0,"CLASSIFICATION_TYPE":"U","NORAD_CAT_ID":48781,"ELEMENT_SET_NO":999,"REV_AT_EPOCH":22426,"BSTAR":0.00036736254,"MEAN_MOTION_DOT":1.51e-6,"MEAN_MOTION_DDOT":0},{"OBJECT_NAME":"ONEWEB-0231","OBJECT_ID":"2021-045R","EPOCH":"2026-01-13T04:40:27.400512","MEAN_MOTION":13.15548524,"ECCENTRICITY":0.0001554,"INCLINATION":87.9006,"RA_OF_ASC_NODE":290.1369,"ARG_OF_PERICENTER":65.1502,"MEAN_ANOMALY":294.979,"EPHEMERIS_TYPE":0,"CLASSIFICATION_TYPE":"U","NORAD_CAT_ID":48782,"ELEMENT_SET_NO":999,"REV_AT_EPOCH":22396,"BSTAR":0.00012443851,"MEAN_MOTION_DOT":6.0e-7,"MEAN_MOTION_DDOT":0},{"OBJECT_NAME":"ONEWEB-0234","OBJECT_ID":"2021-045S","EPOCH":"2026-01-13T03:45:29.109024","MEAN_MOTION":13.1554985,"ECCENTRICITY":0.00014492,"INCLINATION":87.901,"RA_OF_ASC_NODE":290.1201,"ARG_OF_PERICENTER":106.4788,"MEAN_ANOMALY":253.6501,"EPHEMERIS_TYPE":0,"CLASSIFICATION_TYPE":"U","NORAD_CAT_ID":48783,"ELEMENT_SET_NO":999,"REV_AT_EPOCH":22409,"BSTAR":-0.00022155571,"MEAN_MOTION_DOT":-7.1e-7,"MEAN_MOTION_DDOT":0},{"OBJECT_NAME":"ONEWEB-0238","OBJECT_ID":"2021-045T","EPOCH":"2026-01-13T03:45:54.252288","MEAN_MOTION":13.15550323,"ECCENTRICITY":0.00014862,"INCLINATION":87.9012,"RA_OF_ASC_NODE":290.1129,"ARG_OF_PERICENTER":90.1808,"MEAN_ANOMALY":269.9493,"EPHEMERIS_TYPE":0,"CLASSIFICATION_TYPE":"U","NORAD_CAT_ID":48784,"ELEMENT_SET_NO":999,"REV_AT_EPOCH":22399,"BSTAR":6.8484778e-5,"MEAN_MOTION_DOT":3.9e-7,"MEAN_MOTION_DDOT":0}]
