ONEWEB-0223             
1 48768U 21045B   26013.18843388  .00000006  00000+0 -18606-4 0  9991
2 48768  87.9010 290.1203 0001345  61.7374 298.3892 13.15548094224029
ONEWEB-0230             
1 48769U 21045C   26013.15990986  .00000065  00000+0  13834-3 0  9997
2 48769  87.9006 290.1534 0001778  74.0134 286.1192 13.15549097224283
ONEWEB-0237             
1 48770U 21045D   26013.14881898  .00000131  00000+0  31506-3 0  9999
2 48770  87.9008 290.1564 0001557  63.8507 296.2784 13.15549280224008
ONEWEB-0235             
1 48771U 21045E   26013.19952560  .00000118  00000+0  27951-3 0  9994
2 48771  87.9010 290.1189 0001398  58.3930 301.7336 13.15548861224006
ONEWEB-0242             
1 48772U 21045F   26013.19318790  .00000086  00000+0  19371-3 0  9997
2 48772  87.9017 290.1147 0001666  67.7989 292.3318 13.15549139224042
ONEWEB-0241             
1 48773U 21045G   26013.18051304 -.00000066  00000+0 -20857-3 0  9993
2 48773  87.9009 290.1520 0001206  68.0877 292.0381 13.15550585223952
ONEWEB-0243             
1 48774U 21045H   26013.21219403  .00000207  00000+0  51586-3 0  9992
2 48774  87.9008 290.1558 0001611  59.3358 300.7931 13.15552803223986
ONEWEB-0222             
1 48775U 21045J   26013.19554458  .00000108  00000+0  25168-3 0  9999
2 48775  87.9013 290.1146 0001481  69.5837 290.5453 13.15550984224025
ONEWEB-0244             
1 48776U 21045K   26013.14565004  .00000241  00000+0  60556-3 0  9992
2 48776  87.9019 290.1133 0001586  68.0468 292.0831 13.15548746224589
ONEWEB-0247             
1 48777U 21045L   26013.21852573  .00000230  00000+0  57756-3 0  9997
2 48777  87.9002 290.1502 0001662  42.7215 317.4044 13.15547350224034
ONEWEB-0245             
1 48778U 21045M   26013.13773423  .00000101  00000+0  23512-3 0  9995
2 48778  87.9010 290.1322 0001361  74.2601 285.8680 13.15548714223992
ONEWEB-0229             
1 48779U 21045N   26013.20903394  .00000243  00000+0  61158-3 0  9991
2 48779  87.9011 290.1159 0001670  68.8935 291.2373 13.15549315224038
ONEWEB-0228             
1 48780U 21045P   26013.16637679 -.00000044  00000+0 -14960-3 0  9998
2 48780  87.9014 290.1110 0001588  70.9582 289.1720 13.15550464223948
ONEWEB-0232             
1 48781U 21045Q   26013.14088829  .00000151  00000+0  36736-3 0  9996
2 48781  87.9024 290.1110 0001581  72.2925 287.8378 13.15550585224263
ONEWEB-0231             
1 48782U 21045R   26013.19476158  .00000060  00000+0  12444-3 0  9997
2 48782  87.9006 290.1369 0001554  65.1502 294.9790 13.15548524223965
ONEWEB-0234             
1 48783U 21045S   26013.15658691 -.00000071  00000+0 -22156-3 0  9993
2 48783  87.9010 290.1201 0001449 106.4788 253.6501 13.15549850224094
ONEWEB-0238             
1 48784U 21045T   26013.15687792  .00000039  00000+0  68485-4 0  9996
2 48784  87.9012 290.1129 0001486  90.1808 269.9493 13.15550323223994
